{"type": "FeatureCollection", "features": [ {"type": "Feature", "properties": {"norad_id": 34529, "name": "IRIDIUM 33 DEB", "group": "iridium-33-debris", "lat": 30.63020543479849, "lon": 35.33383850775519, "alt_km": 757.3426712297223, "timestamp": "2025-12-17T23:38:07.238732+00:00", "meta": {"OBJECT_NAME": "IRIDIUM 33 DEB", "OBJECT_ID": "1997-051HW", "EPOCH": "2025-12-17T03:29:20.563296", "MEAN_MOTION": 14.40619267, "ECCENTRICITY": 0.00053513, "INCLINATION": 86.3637, "RA_OF_ASC_NODE": 33.5337, "ARG_OF_PERICENTER": 163.3615, "MEAN_ANOMALY": 196.7761, "EPHEMERIS_TYPE": 0, "CLASSIFICATION_TYPE": "U", "NORAD_CAT_ID": 34529, "ELEMENT_SET_NO": 999, "REV_AT_EPOCH": 88205, "BSTAR": 9.9400993e-05, "MEAN_MOTION_DOT": 3.37e-06, "MEAN_MOTION_DDOT": 0}, "tle": {"line1": "1 34529U 97051HW  25351.14537689  .00000337  00000+0  99401-4 0  9993", "line2": "2 34529  86.3637  33.5337 0005351 163.3615 196.7761 14.40619267882051"}}, "geometry": {"type": "Point", "coordinates": [35.33383850775519, 30.63020543479849]}}, {"type": "Feature", "properties": {"norad_id": 34538, "name": "IRIDIUM 33 DEB", "group": "iridium-33-debris", "lat": -84.74616223177368, "lon": -131.65942638104264, "alt_km": 740.4278343260294, "timestamp": "2025-12-17T23:38:07.238743+00:00", "meta": {"OBJECT_NAME": "IRIDIUM 33 DEB", "OBJECT_ID": "1997-051JF", "EPOCH": "2025-12-17T06:19:36.292800", "MEAN_MOTION": 14.42675143, "ECCENTRICITY": 0.00323823, "INCLINATION": 86.2769, "RA_OF_ASC_NODE": 3.5747, "ARG_OF_PERICENTER": 312.4941, "MEAN_ANOMALY": 170.8226, "EPHEMERIS_TYPE": 0, "CLASSIFICATION_TYPE": "U", "NORAD_CAT_ID": 34538, "ELEMENT_SET_NO": 999, "REV_AT_EPOCH": 87821, "BSTAR": 0.00073550599, "MEAN_MOTION_DOT": 2.479e-05, "MEAN_MOTION_DDOT": 0}, "tle": {"line1": "1 34538U 97051JF  25351.26361450  .00002479  00000+0  73551-3 0  9993", "line2": "2 34538  86.2769   3.5747 0032382 312.4941 170.8226 14.42675143878210"}}, "geometry": {"type": "Point", "coordinates": [-131.65942638104264, -84.74616223177368]}}, {"type": "Feature", "properties": {"norad_id": 34540, "name": "IRIDIUM 33 DEB", "group": "iridium-33-debris", "lat": -41.687752658032885, "lon": 128.5027428204762, "alt_km": 648.5343780749517, "timestamp": "2025-12-17T23:38:07.238754+00:00", "meta": {"OBJECT_NAME": "IRIDIUM 33 DEB", "OBJECT_ID": "1997-051JH", "EPOCH": "2025-12-17T15:18:40.192416", "MEAN_MOTION": 14.75421106, "ECCENTRICITY": 0.0017206, "INCLINATION": 86.31, "RA_OF_ASC_NODE": 305.3665, "ARG_OF_PERICENTER": 142.1543, "MEAN_ANOMALY": 38.3017, "EPHEMERIS_TYPE": 0, "CLASSIFICATION_TYPE": "U", "NORAD_CAT_ID": 34540, "ELEMENT_SET_NO": 999, "REV_AT_EPOCH": 89093, "BSTAR": 0.0012214614, "MEAN_MOTION_DOT": 8.341e-05, "MEAN_MOTION_DDOT": 0}, "tle": {"line1": "1 34540U 97051JH  25351.63796519  .00008341  00000+0  12215-2 0  9998", "line2": "2 34540  86.3100 305.3665 0017206 142.1543  38.3017 14.75421106890932"}}, "geometry": {"type": "Point", "coordinates": [128.5027428204762, -41.687752658032885]}}, {"type": "Feature", "properties": {"norad_id": 34648, "name": "IRIDIUM 33 DEB", "group": "iridium-33-debris", "lat": -64.00062019615363, "lon": 107.26447435218567, "alt_km": 757.1667459673235, "timestamp": "2025-12-17T23:38:07.238764+00:00", "meta": {"OBJECT_NAME": "IRIDIUM 33 DEB", "OBJECT_ID": "1997-051JZ", "EPOCH": "2025-12-17T05:27:16.397568", "MEAN_MOTION": 14.11635148, "ECCENTRICITY": 0.01813922, "INCLINATION": 86.3906, "RA_OF_ASC_NODE": 280.1344, "ARG_OF_PERICENTER": 284.869, "MEAN_ANOMALY": 73.2466, "EPHEMERIS_TYPE": 0, "CLASSIFICATION_TYPE": "U", "NORAD_CAT_ID": 34648, "ELEMENT_SET_NO": 999, "REV_AT_EPOCH": 85024, "BSTAR": 0.0057584356, "MEAN_MOTION_DOT": 0.00012245, "MEAN_MOTION_DDOT": 0}, "tle": {"line1": "1 34648U 97051JZ  25351.22727312  .00012245  00000+0  57584-2 0  9993", "line2": "2 34648  86.3906 280.1344 0181392 284.8690  73.2466 14.11635148850243"}}, "geometry": {"type": "Point", "coordinates": [107.26447435218567, -64.00062019615363]}}, {"type": "Feature", "properties": {"norad_id": 34651, "name": "IRIDIUM 33 DEB", "group": "iridium-33-debris", "lat": -33.10742132310921, "lon": -39.224312111701586, "alt_km": 719.3889373651346, "timestamp": "2025-12-17T23:38:07.238774+00:00", "meta": {"OBJECT_NAME": "IRIDIUM 33 DEB", "OBJECT_ID": "1997-051KC", "EPOCH": "2025-12-17T09:10:02.790336", "MEAN_MOTION": 14.25892739, "ECCENTRICITY": 0.01422319, "INCLINATION": 86.2826, "RA_OF_ASC_NODE": 138.6025, "ARG_OF_PERICENTER": 189.2398, "MEAN_ANOMALY": 170.6175, "EPHEMERIS_TYPE": 0, "CLASSIFICATION_TYPE": "U", "NORAD_CAT_ID": 34651, "ELEMENT_SET_NO": 999, "REV_AT_EPOCH": 85962, "BSTAR": 0.0024534295, "MEAN_MOTION_DOT": 6.516e-05, "MEAN_MOTION_DDOT": 0}, "tle": {"line1": "1 34651U 97051KC  25351.38197674  .00006516  00000+0  24534-2 0  9999", "line2": "2 34651  86.2826 138.6025 0142231 189.2398 170.6175 14.25892739859628"}}, "geometry": {"type": "Point", "coordinates": [-39.224312111701586, -33.10742132310921]}}, {"type": "Feature", "properties": {"norad_id": 34652, "name": "IRIDIUM 33 DEB", "group": "iridium-33-debris", "lat": -46.13055424989821, "lon": 161.49347146359165, "alt_km": 682.3400773550402, "timestamp": "2025-12-17T23:38:07.238785+00:00", "meta": {"OBJECT_NAME": "IRIDIUM 33 DEB", "OBJECT_ID": "1997-051KD", "EPOCH": "2025-12-17T10:09:28.253088", "MEAN_MOTION": 14.62102279, "ECCENTRICITY": 0.00256194, "INCLINATION": 86.3313, "RA_OF_ASC_NODE": 337.9164, "ARG_OF_PERICENTER": 281.1388, "MEAN_ANOMALY": 231.348, "EPHEMERIS_TYPE": 0, "CLASSIFICATION_TYPE": "U", "NORAD_CAT_ID": 34652, "ELEMENT_SET_NO": 999, "REV_AT_EPOCH": 88552, "BSTAR": 0.00074941981, "MEAN_MOTION_DOT": 3.803e-05, "MEAN_MOTION_DDOT": 0}, "tle": {"line1": "1 34652U 97051KD  25351.42324367  .00003803  00000+0  74942-3 0  9991", "line2": "2 34652  86.3313 337.9164 0025619 281.1388 231.3480 14.62102279885526"}}, "geometry": {"type": "Point", "coordinates": [161.49347146359165, -46.13055424989821]}}, {"type": "Feature", "properties": {"norad_id": 34690, "name": "IRIDIUM 33 DEB", "group": "iridium-33-debris", "lat": -42.425240649451744, "lon": 31.393547581095863, "alt_km": 711.4937720631779, "timestamp": "2025-12-17T23:38:07.238795+00:00", "meta": {"OBJECT_NAME": "IRIDIUM 33 DEB", "OBJECT_ID": "1997-051KM", "EPOCH": "2025-12-17T09:02:29.948064", "MEAN_MOTION": 14.55112856, "ECCENTRICITY": 0.00102781, "INCLINATION": 86.378, "RA_OF_ASC_NODE": 34.9765, "ARG_OF_PERICENTER": 14.3061, "MEAN_ANOMALY": 0.0847, "EPHEMERIS_TYPE": 0, "CLASSIFICATION_TYPE": "U", "NORAD_CAT_ID": 34690, "ELEMENT_SET_NO": 999, "REV_AT_EPOCH": 88162, "BSTAR": 0.00032988502, "MEAN_MOTION_DOT": 1.445e-05, "MEAN_MOTION_DDOT": 0}, "tle": {"line1": "1 34690U 97051KM  25351.37673551  .00001445  00000+0  32989-3 0  9994", "line2": "2 34690  86.3780  34.9765 0010278  14.3061   0.0847 14.55112856881625"}}, "geometry": {"type": "Point", "coordinates": [31.393547581095863, -42.425240649451744]}}, {"type": "Feature", "properties": {"norad_id": 34693, "name": "IRIDIUM 33 DEB", "group": "iridium-33-debris", "lat": -48.634842256183035, "lon": -62.99265010260378, "alt_km": 485.375796915896, "timestamp": "2025-12-17T23:38:07.238805+00:00", "meta": {"OBJECT_NAME": "IRIDIUM 33 DEB", "OBJECT_ID": "1997-051KQ", "EPOCH": "2025-12-17T03:29:01.779936", "MEAN_MOTION": 15.28993867, "ECCENTRICITY": 0.0012502, "INCLINATION": 86.3047, "RA_OF_ASC_NODE": 301.6344, "ARG_OF_PERICENTER": 45.3487, "MEAN_ANOMALY": 327.2881, "EPHEMERIS_TYPE": 0, "CLASSIFICATION_TYPE": "U", "NORAD_CAT_ID": 34693, "ELEMENT_SET_NO": 999, "REV_AT_EPOCH": 88982, "BSTAR": 0.0037800508, "MEAN_MOTION_DOT": 0.00107985, "MEAN_MOTION_DDOT": 0}, "tle": {"line1": "1 34693U 97051KQ  25351.14515949  .00107985  00000+0  37801-2 0  9991", "line2": "2 34693  86.3047 301.6344 0012502  45.3487 327.2881 15.28993867889821"}}, "geometry": {"type": "Point", "coordinates": [-62.99265010260378, -48.634842256183035]}}, {"type": "Feature", "properties": {"norad_id": 34696, "name": "IRIDIUM 33 DEB", "group": "iridium-33-debris", "lat": -71.7158484631045, "lon": 13.431309148253, "alt_km": 722.0712317667421, "timestamp": "2025-12-17T23:38:07.238816+00:00", "meta": {"OBJECT_NAME": "IRIDIUM 33 DEB", "OBJECT_ID": "1997-051KT", "EPOCH": "2025-12-17T09:30:23.079744", "MEAN_MOTION": 14.6532937, "ECCENTRICITY": 0.00740014, "INCLINATION": 86.1851, "RA_OF_ASC_NODE": 25.356, "ARG_OF_PERICENTER": 151.7649, "MEAN_ANOMALY": 272.0645, "EPHEMERIS_TYPE": 0, "CLASSIFICATION_TYPE": "U", "NORAD_CAT_ID": 34696, "ELEMENT_SET_NO": 999, "REV_AT_EPOCH": 86741, "BSTAR": 0.0031909268, "MEAN_MOTION_DOT": 0.00017981, "MEAN_MOTION_DDOT": 0}, "tle": {"line1": "1 34696U 97051KT  25351.39610046  .00017981  00000+0  31909-2 0  9994", "line2": "2 34696  86.1851  25.3560 0074001 151.7649 272.0645 14.65329370867417"}}, "geometry": {"type": "Point", "coordinates": [13.431309148253, -71.7158484631045]}}, {"type": "Feature", "properties": {"norad_id": 34765, "name": "IRIDIUM 33 DEB", "group": "iridium-33-debris", "lat": 69.95863282960094, "lon": 40.62008924507893, "alt_km": 756.4639929013429, "timestamp": "2025-12-17T23:38:07.238826+00:00", "meta": {"OBJECT_NAME": "IRIDIUM 33 DEB", "OBJECT_ID": "1997-051LJ", "EPOCH": "2025-12-17T14:00:27.393696", "MEAN_MOTION": 14.4047717, "ECCENTRICITY": 0.00159633, "INCLINATION": 86.3388, "RA_OF_ASC_NODE": 30.6831, "ARG_OF_PERICENTER": 194.8895, "MEAN_ANOMALY": 316.624, "EPHEMERIS_TYPE": 0, "CLASSIFICATION_TYPE": "U", "NORAD_CAT_ID": 34765, "ELEMENT_SET_NO": 999, "REV_AT_EPOCH": 87683, "BSTAR": 0.0003220723, "MEAN_MOTION_DOT": 1.045e-05, "MEAN_MOTION_DDOT": 0}, "tle": {"line1": "1 34765U 97051LJ  25351.58365039  .00001045  00000+0  32207-3 0  9998", "line2": "2 34765  86.3388  30.6831 0015963 194.8895 316.6240 14.40477170876831"}}, "geometry": {"type": "Point", "coordinates": [40.62008924507893, 69.95863282960094]}}]}